ORBCOMM FM20            
1 25416U 98046D   25089.77381600  .00001825  00000+0  65751-3 0  9993
2 25416  44.9931 192.5640 0002477 232.5818 127.4804 14.36987820392981
ORBCOMM FM16            
1 25417U 98046E   25089.79130807  .00002710  00000+0  92249-3 0  9993
2 25417  44.9925 185.0602 0006225 252.9399 107.0767 14.38599474392961
ORBCOMM FM15            
1 25418U 98046F   25089.74829811  .00002403  00000+0  82917-3 0  9999
2 25418  44.9957 190.1769 0005716 252.2471 107.7754 14.38257305392952
ORBCOMM FM14            
1 25419U 98046G   25089.71588441  .00002456  00000+0  84053-3 0  9999
2 25419  44.9943 188.7879 0004734 244.7986 115.2371 14.38595744392916
ORBCOMM FM13            
1 25420U 98046H   25089.62434504  .00002340  00000+0  82238-3 0  9996
2 25420  44.9964 196.4509 0006717 237.8732 122.1465 14.37416753391935
ORBCOMM FM21            
1 25475U 98053A   25089.82224033  .00001906  00000+0  68270-3 0  9997
2 25475  45.0074 280.5502 0001664 173.7329 186.3540 14.37126275385973
ORBCOMM FM22            
1 25476U 98053B   25089.77548554  .00002531  00000+0  87391-3 0  9999
2 25476  45.0065 276.2390 0003618 181.1400 178.9440 14.38089656385984
ORBCOMM FM23            
1 25477U 98053C   25089.83231133  .00001897  00000+0  67757-3 0  9997
2 25477  45.0075 282.7295 0002646 175.3554 184.7319 14.37277920386126
